[Satellite]
VERSION=1.1
NAME=GOES 16
NICKNAME=GOES 16
TLE1=1 41866U 16071A   18019.87773469 -.00000245  00000-0  00000-0 0  9992
TLE2=2 41866   0.0069 115.0916 0001074 269.6956 335.2025  1.00271237  4322
